{"type": "FeatureCollection", "features": [ {"type": "Feature", "properties": {"norad_id": 34079, "name": "IRIDIUM 33 DEB", "group": "iridium-33-debris", "lat": -73.06608909112748, "lon": -165.46712679239747, "alt_km": 623.2215472566168, "timestamp": "2025-12-26T05:31:12.891573+00:00", "meta": {"OBJECT_NAME": "IRIDIUM 33 DEB", "OBJECT_ID": "1997-051CN", "EPOCH": "2025-12-25T23:47:28.010688", "MEAN_MOTION": 14.83883238, "ECCENTRICITY": 0.00039178, "INCLINATION": 86.3779, "RA_OF_ASC_NODE": 2.6334, "ARG_OF_PERICENTER": 317.0735, "MEAN_ANOMALY": 102.0107, "EPHEMERIS_TYPE": 0, "CLASSIFICATION_TYPE": "U", "NORAD_CAT_ID": 34079, "ELEMENT_SET_NO": 999, "REV_AT_EPOCH": 89174, "BSTAR": 0.0018645122, "MEAN_MOTION_DOT": 0.00015518, "MEAN_MOTION_DDOT": 0}, "tle": {"line1": "1 34079U 97051CN  25359.99129642  .00015518  00000+0  18645-2 0  9996", "line2": "2 34079  86.3779   2.6334 0003917 317.0735 102.0107 14.83883238891747"}}, "geometry": {"type": "Point", "coordinates": [-165.46712679239747, -73.06608909112748]}}, {"type": "Feature", "properties": {"norad_id": 34088, "name": "IRIDIUM 33 DEB", "group": "iridium-33-debris", "lat": 11.589845542987073, "lon": 25.26446404579939, "alt_km": 595.9035541169351, "timestamp": "2025-12-26T05:31:12.891584+00:00", "meta": {"OBJECT_NAME": "IRIDIUM 33 DEB", "OBJECT_ID": "1997-051CX", "EPOCH": "2025-12-25T13:54:21.561408", "MEAN_MOTION": 14.91956095, "ECCENTRICITY": 0.0007066, "INCLINATION": 86.3844, "RA_OF_ASC_NODE": 24.8206, "ARG_OF_PERICENTER": 136.8493, "MEAN_ANOMALY": 342.8707, "EPHEMERIS_TYPE": 0, "CLASSIFICATION_TYPE": "U", "NORAD_CAT_ID": 34088, "ELEMENT_SET_NO": 999, "REV_AT_EPOCH": 88933, "BSTAR": 0.0024865, "MEAN_MOTION_DOT": 0.00025266, "MEAN_MOTION_DDOT": 0}, "tle": {"line1": "1 34088U 97051CX  25359.57941622  .00025266  00000+0  24865-2 0  9992", "line2": "2 34088  86.3844  24.8206 0007066 136.8493 342.8707 14.91956095889334"}}, "geometry": {"type": "Point", "coordinates": [25.26446404579939, 11.589845542987073]}}, {"type": "Feature", "properties": {"norad_id": 34091, "name": "IRIDIUM 33 DEB", "group": "iridium-33-debris", "lat": 76.91262563687286, "lon": -135.32667258210017, "alt_km": 632.3574275164774, "timestamp": "2025-12-26T05:31:12.891594+00:00", "meta": {"OBJECT_NAME": "IRIDIUM 33 DEB", "OBJECT_ID": "1997-051DA", "EPOCH": "2025-12-25T16:05:58.411680", "MEAN_MOTION": 14.82763953, "ECCENTRICITY": 0.0034351, "INCLINATION": 86.341, "RA_OF_ASC_NODE": 60.9075, "ARG_OF_PERICENTER": 246.9667, "MEAN_ANOMALY": 112.7932, "EPHEMERIS_TYPE": 0, "CLASSIFICATION_TYPE": "U", "NORAD_CAT_ID": 34091, "ELEMENT_SET_NO": 999, "REV_AT_EPOCH": 88058, "BSTAR": 0.0047741702, "MEAN_MOTION_DOT": 0.00039162, "MEAN_MOTION_DDOT": 0}, "tle": {"line1": "1 34091U 97051DA  25359.67081495  .00039162  00000+0  47742-2 0  9999", "line2": "2 34091  86.3410  60.9075 0034351 246.9667 112.7932 14.82763953880586"}}, "geometry": {"type": "Point", "coordinates": [-135.32667258210017, 76.91262563687286]}}, {"type": "Feature", "properties": {"norad_id": 34097, "name": "IRIDIUM 33 DEB", "group": "iridium-33-debris", "lat": -28.013381932569594, "lon": 177.47841462910415, "alt_km": 800.827934849267, "timestamp": "2025-12-26T05:31:12.891605+00:00", "meta": {"OBJECT_NAME": "IRIDIUM 33 DEB", "OBJECT_ID": "1997-051DG", "EPOCH": "2025-12-25T23:31:33.693312", "MEAN_MOTION": 14.3488456, "ECCENTRICITY": 0.00812924, "INCLINATION": 86.2006, "RA_OF_ASC_NODE": 355.5626, "ARG_OF_PERICENTER": 318.8102, "MEAN_ANOMALY": 40.6976, "EPHEMERIS_TYPE": 0, "CLASSIFICATION_TYPE": "U", "NORAD_CAT_ID": 34097, "ELEMENT_SET_NO": 999, "REV_AT_EPOCH": 87309, "BSTAR": 0.0015956547, "MEAN_MOTION_DOT": 4.723e-05, "MEAN_MOTION_DDOT": 0}, "tle": {"line1": "1 34097U 97051DG  25359.98025108  .00004723  00000+0  15957-2 0  9996", "line2": "2 34097  86.2006 355.5626 0081292 318.8102  40.6976 14.34884560873096"}}, "geometry": {"type": "Point", "coordinates": [177.47841462910415, -28.013381932569594]}}, {"type": "Feature", "properties": {"norad_id": 34145, "name": "IRIDIUM 33 DEB", "group": "iridium-33-debris", "lat": 57.04026467003688, "lon": 140.65519836391726, "alt_km": 732.6523678849626, "timestamp": "2025-12-26T05:31:12.891615+00:00", "meta": {"OBJECT_NAME": "IRIDIUM 33 DEB", "OBJECT_ID": "1997-051DY", "EPOCH": "2025-12-25T22:17:54.684096", "MEAN_MOTION": 14.42385613, "ECCENTRICITY": 0.00554454, "INCLINATION": 86.2129, "RA_OF_ASC_NODE": 326.6523, "ARG_OF_PERICENTER": 51.9493, "MEAN_ANOMALY": 308.6692, "EPHEMERIS_TYPE": 0, "CLASSIFICATION_TYPE": "U", "NORAD_CAT_ID": 34145, "ELEMENT_SET_NO": 999, "REV_AT_EPOCH": 87828, "BSTAR": 0.001320133, "MEAN_MOTION_DOT": 4.465e-05, "MEAN_MOTION_DDOT": 0}, "tle": {"line1": "1 34145U 97051DY  25359.92910514  .00004465  00000+0  13201-2 0  9991", "line2": "2 34145  86.2129 326.6523 0055445  51.9493 308.6692 14.42385613878282"}}, "geometry": {"type": "Point", "coordinates": [140.65519836391726, 57.04026467003688]}}, {"type": "Feature", "properties": {"norad_id": 34146, "name": "IRIDIUM 33 DEB", "group": "iridium-33-debris", "lat": 85.23976304407103, "lon": 35.137212766365145, "alt_km": 720.3772511501165, "timestamp": "2025-12-26T05:31:12.891626+00:00", "meta": {"OBJECT_NAME": "IRIDIUM 33 DEB", "OBJECT_ID": "1997-051DZ", "EPOCH": "2025-12-25T22:37:42.915648", "MEAN_MOTION": 14.49132672, "ECCENTRICITY": 0.00270027, "INCLINATION": 86.2842, "RA_OF_ASC_NODE": 343.9669, "ARG_OF_PERICENTER": 176.2288, "MEAN_ANOMALY": 214.0299, "EPHEMERIS_TYPE": 0, "CLASSIFICATION_TYPE": "U", "NORAD_CAT_ID": 34146, "ELEMENT_SET_NO": 999, "REV_AT_EPOCH": 88298, "BSTAR": 0.00090103394, "MEAN_MOTION_DOT": 3.461e-05, "MEAN_MOTION_DDOT": 0}, "tle": {"line1": "1 34146U 97051DZ  25359.94285782  .00003461  00000+0  90103-3 0  9998", "line2": "2 34146  86.2842 343.9669 0027002 176.2288 214.0299 14.49132672882986"}}, "geometry": {"type": "Point", "coordinates": [35.137212766365145, 85.23976304407103]}}, {"type": "Feature", "properties": {"norad_id": 34159, "name": "IRIDIUM 33 DEB", "group": "iridium-33-debris", "lat": 9.108793844211162, "lon": 43.07482503987213, "alt_km": 776.9098883197566, "timestamp": "2025-12-26T05:31:12.891636+00:00", "meta": {"OBJECT_NAME": "IRIDIUM 33 DEB", "OBJECT_ID": "1997-051EN", "EPOCH": "2025-12-25T12:47:00.400128", "MEAN_MOTION": 14.38524425, "ECCENTRICITY": 0.0026262, "INCLINATION": 86.3493, "RA_OF_ASC_NODE": 42.7857, "ARG_OF_PERICENTER": 242.6608, "MEAN_ANOMALY": 117.1916, "EPHEMERIS_TYPE": 0, "CLASSIFICATION_TYPE": "U", "NORAD_CAT_ID": 34159, "ELEMENT_SET_NO": 999, "REV_AT_EPOCH": 88143, "BSTAR": 0.00040229, "MEAN_MOTION_DOT": 1.253e-05, "MEAN_MOTION_DDOT": 0}, "tle": {"line1": "1 34159U 97051EN  25359.53264352  .00001253  00000+0  40229-3 0  9998", "line2": "2 34159  86.3493  42.7857 0026262 242.6608 117.1916 14.38524425881434"}}, "geometry": {"type": "Point", "coordinates": [43.07482503987213, 9.108793844211162]}}, {"type": "Feature", "properties": {"norad_id": 34350, "name": "IRIDIUM 33 DEB", "group": "iridium-33-debris", "lat": 11.619473178370471, "lon": -2.2905157437904573, "alt_km": 739.7714039717612, "timestamp": "2025-12-26T05:31:12.891647+00:00", "meta": {"OBJECT_NAME": "IRIDIUM 33 DEB", "OBJECT_ID": "1997-051ES", "EPOCH": "2025-12-25T23:06:16.433280", "MEAN_MOTION": 14.45417285, "ECCENTRICITY": 0.00235183, "INCLINATION": 86.3273, "RA_OF_ASC_NODE": 357.0687, "ARG_OF_PERICENTER": 94.83, "MEAN_ANOMALY": 327.0824, "EPHEMERIS_TYPE": 0, "CLASSIFICATION_TYPE": "U", "NORAD_CAT_ID": 34350, "ELEMENT_SET_NO": 999, "REV_AT_EPOCH": 88484, "BSTAR": 0.00034072842, "MEAN_MOTION_DOT": 1.223e-05, "MEAN_MOTION_DDOT": 0}, "tle": {"line1": "1 34350U 97051ES  25359.96269020  .00001223  00000+0  34073-3 0  9992", "line2": "2 34350  86.3273 357.0687 0023518  94.8300 327.0824 14.45417285884844"}}, "geometry": {"type": "Point", "coordinates": [-2.2905157437904573, 11.619473178370471]}}, {"type": "Feature", "properties": {"norad_id": 34366, "name": "IRIDIUM 33 DEB", "group": "iridium-33-debris", "lat": 41.784895289413534, "lon": 46.698318249660424, "alt_km": 699.5938176946838, "timestamp": "2025-12-26T05:31:12.891657+00:00", "meta": {"OBJECT_NAME": "IRIDIUM 33 DEB", "OBJECT_ID": "1997-051FJ", "EPOCH": "2025-12-25T13:24:52.713216", "MEAN_MOTION": 14.5415312, "ECCENTRICITY": 0.0023044, "INCLINATION": 86.3679, "RA_OF_ASC_NODE": 43.7363, "ARG_OF_PERICENTER": 99.9841, "MEAN_ANOMALY": 31.4578, "EPHEMERIS_TYPE": 0, "CLASSIFICATION_TYPE": "U", "NORAD_CAT_ID": 34366, "ELEMENT_SET_NO": 999, "REV_AT_EPOCH": 88368, "BSTAR": 0.00092452, "MEAN_MOTION_DOT": 3.943e-05, "MEAN_MOTION_DDOT": 0}, "tle": {"line1": "1 34366U 97051FJ  25359.55894344  .00003943  00000+0  92452-3 0  9993", "line2": "2 34366  86.3679  43.7363 0023044  99.9841  31.4578 14.54153120883689"}}, "geometry": {"type": "Point", "coordinates": [46.698318249660424, 41.784895289413534]}}, {"type": "Feature", "properties": {"norad_id": 34375, "name": "IRIDIUM 33 DEB", "group": "iridium-33-debris", "lat": 5.1509113943887215, "lon": 177.58576716007107, "alt_km": 819.685711458198, "timestamp": "2025-12-26T05:31:12.891668+00:00", "meta": {"OBJECT_NAME": "IRIDIUM 33 DEB", "OBJECT_ID": "1997-051FT", "EPOCH": "2025-12-25T12:52:34.268736", "MEAN_MOTION": 14.18014941, "ECCENTRICITY": 0.0103685, "INCLINATION": 86.4324, "RA_OF_ASC_NODE": 177.5431, "ARG_OF_PERICENTER": 86.7144, "MEAN_ANOMALY": 341.7037, "EPHEMERIS_TYPE": 0, "CLASSIFICATION_TYPE": "U", "NORAD_CAT_ID": 34375, "ELEMENT_SET_NO": 999, "REV_AT_EPOCH": 86893, "BSTAR": 0.00040149, "MEAN_MOTION_DOT": 8.86e-06, "MEAN_MOTION_DDOT": 0}, "tle": {"line1": "1 34375U 97051FT  25359.53650774  .00000886  00000+0  40149-3 0  9997", "line2": "2 34375  86.4324 177.5431 0103685  86.7144 341.7037 14.18014941868934"}}, "geometry": {"type": "Point", "coordinates": [177.58576716007107, 5.1509113943887215]}}]}